{
    "links": {
        "self": "http://www.neowsapp.com/rest/v1/neo/3673724?api_key=iIulBulltgU6a56xZRHN4H3l9WmuAYTsLGpBGhQ2"
    },
    "id": "3673724",
    "neo_reference_id": "3673724",
    "name": "(2014 LF25)",
    "designation": "2014 LF25",
    "nasa_jpl_url": "http://ssd.jpl.nasa.gov/sbdb.cgi?sstr=3673724",
    "absolute_magnitude_h": 24.1,
    "estimated_diameter": {
        "kilometers": {
            "estimated_diameter_min": 0.040230458,
            "estimated_diameter_max": 0.0899580388
        },
        "meters": {
            "estimated_diameter_min": 40.2304579834,
            "estimated_diameter_max": 89.9580388169
        },
        "miles": {
            "estimated_diameter_min": 0.0249980399,
            "estimated_diameter_max": 0.0558973165
        },
        "feet": {
            "estimated_diameter_min": 131.9896957704,
            "estimated_diameter_max": 295.1379320721
        }
    },
    "is_potentially_hazardous_asteroid": false,
    "close_approach_data": [
        {
            "close_approach_date": "2011-05-30",
            "close_approach_date_full": "2011-May-30 09:52",
            "epoch_date_close_approach": 1306749120000,
            "relative_velocity": {
                "kilometers_per_second": "11.5535420947",
                "kilometers_per_hour": "41592.7515409045",
                "miles_per_hour": "25844.1183116248"
            },
            "miss_distance": {
                "astronomical": "0.0503580319",
                "lunar": "19.5892744091",
                "kilometers": "7533454.309632053",
                "miles": "4681071.4438382114"
            },
            "orbiting_body": "Earth"
        },
        {
            "close_approach_date": "2014-05-31",
            "close_approach_date_full": "2014-May-31 12:58",
            "epoch_date_close_approach": 1401541080000,
            "relative_velocity": {
                "kilometers_per_second": "11.6990226614",
                "kilometers_per_hour": "42116.4815810252",
                "miles_per_hour": "26169.5437912765"
            },
            "miss_distance": {
                "astronomical": "0.0379258015",
                "lunar": "14.7531367835",
                "kilometers": "5673619.122442805",
                "miles": "3525423.446628509"
            },
            "orbiting_body": "Earth"
        },
        {
            "close_approach_date": "2017-06-01",
            "close_approach_date_full": "2017-Jun-01 11:55",
            "epoch_date_close_approach": 1496318100000,
            "relative_velocity": {
                "kilometers_per_second": "11.8744128436",
                "kilometers_per_hour": "42747.8862370597",
                "miles_per_hour": "26561.8740899108"
            },
            "miss_distance": {
                "astronomical": "0.0430205082",
                "lunar": "16.7349776898",
                "kilometers": "6435776.393037534",
                "miles": "3999006.0142606092"
            },
            "orbiting_body": "Earth"
        }
    ],
    "orbital_data": {
        "orbit_id": "3",
        "orbit_determination_date": "2017-04-06 08:40:08",
        "first_observation_date": "2014-06-08",
        "last_observation_date": "2014-06-10",
        "data_arc_in_days": 2,
        "observations_used": 28,
        "orbit_uncertainty": "8",
        "minimum_orbit_intersection": ".0376827",
        "jupiter_tisserand_invariant": "4.881",
        "epoch_osculation": "2456817.5",
        "eccentricity": ".2158091243312091",
        "semi_major_axis": "1.311676681766654",
        "inclination": "21.20437964411845",
        "ascending_node_longitude": "251.1386546458871",
        "orbital_period": "548.7046287617627",
        "perihelion_distance": "1.028604885668926",
        "perihelion_argument": "330.5754006661932",
        "aphelion_distance": "1.594748477864381",
        "perihelion_time": "2456781.537701635373",
        "mean_anomaly": "23.59452924696726",
        "mean_motion": ".656090692751027",
        "equinox": "J2000",
        "orbit_class": {
            "orbit_class_type": "AMO",
            "orbit_class_description": "Near-Earth asteroid orbits similar to that of 1221 Amor",
            "orbit_class_range": "1.017 AU < q (perihelion) < 1.3 AU"
        }
    },
    "is_sentry_object": false
}